HYLAS 2                 
1 38741U 12043B   17345.68992014  .00000148  00000-0  00000-0 0  9995
2 38741   0.0175  19.2661 0001670 249.3621  91.3579  1.00272008 19581
